{
  "type": "FeatureCollection",
  "name": "delhi-barapullah",
  "crs": { "type": "name", "properties": { "name": "urn:ogc:def:crs:OGC:1.3:CRS84" } },
  "features": [
    {
      "type": "Feature",
      "properties": {
        "catchment_id": "delhi-barapullah",
        "name": "Barapullah drain catchment, South Delhi",
        "country": "IN",
        "note": "Corridor around the Kushak Nallah and Barapulla Nala drain system of South and Central Delhi, from the colony drains of R K Puram, Green Park and Chirag Delhi down past Lodhi Colony, Jangpura and Nizamuddin to the outfall into the Yamuna at Sarai Kale Khan. The eastern edge is held west of the Yamuna itself so the river does not dominate the network."
      },
      "geometry": {
        "type": "Polygon",
        "coordinates": [[
          [77.1950, 28.5450],
          [77.2620, 28.5450],
          [77.2620, 28.6000],
          [77.1950, 28.6000],
          [77.1950, 28.5450]
        ]]
      }
    }
  ]
}
