{
  "type": "FeatureCollection",
  "name": "delhi-barapullah-outfalls",
  "crs": { "type": "name", "properties": { "name": "urn:ogc:def:crs:OGC:1.3:CRS84" } },
  "_comment": "SYNTHETIC. No public register of sewer overflows, misconnections or storm outfalls exists for the Barapullah system, so every feature here is invented at a plausible position on the mapped drains (drain heads in the colonies, and confluences where side drains meet the Kushak Nallah) and carries is_synthetic:true. Place names are approximate neighbourhoods, not surveyed locations. PRD R2 requires the console to label these visibly. node_id is left empty and filled by the compile CLI after snapping. base_rate is the prior probability that this source discharges in a given dry-weather hour.",
  "features": [
    { "type": "Feature", "geometry": { "type": "Point", "coordinates": [77.23092, 28.59144] },
      "properties": { "outfall_id": "O01", "node_id": "", "source_type": "storm_outfall",
                      "base_rate": 0.0010, "is_synthetic": true,
                      "name": "Storm drain head, near Sunder Nagar" } },
    { "type": "Feature", "geometry": { "type": "Point", "coordinates": [77.24371, 28.58723] },
      "properties": { "outfall_id": "O02", "node_id": "", "source_type": "cso",
                      "base_rate": 0.0040, "is_synthetic": true,
                      "name": "Sewer overflow at the confluence, near Nizamuddin West" } },
    { "type": "Feature", "geometry": { "type": "Point", "coordinates": [77.24589, 28.57506] },
      "properties": { "outfall_id": "O03", "node_id": "", "source_type": "misconnection",
                      "base_rate": 0.0025, "is_synthetic": true,
                      "name": "Sewage misconnection, drain head near Bhogal" } },
    { "type": "Feature", "geometry": { "type": "Point", "coordinates": [77.23639, 28.57972] },
      "properties": { "outfall_id": "O04", "node_id": "", "source_type": "storm_outfall",
                      "base_rate": 0.0010, "is_synthetic": true,
                      "name": "Storm outfall at the side-drain confluence, near Jangpura" } },
    { "type": "Feature", "geometry": { "type": "Point", "coordinates": [77.21822, 28.57557] },
      "properties": { "outfall_id": "O05", "node_id": "", "source_type": "cso",
                      "base_rate": 0.0040, "is_synthetic": true,
                      "name": "Sewer overflow on the Kushak Nallah, near Lodhi Colony" } },
    { "type": "Feature", "geometry": { "type": "Point", "coordinates": [77.20454, 28.57344] },
      "properties": { "outfall_id": "O06", "node_id": "", "source_type": "industrial",
                      "base_rate": 0.0008, "is_synthetic": true,
                      "name": "Commercial laundry discharge, near Safdarjung Enclave" } },
    { "type": "Feature", "geometry": { "type": "Point", "coordinates": [77.20176, 28.57916] },
      "properties": { "outfall_id": "O07", "node_id": "", "source_type": "storm_outfall",
                      "base_rate": 0.0010, "is_synthetic": true,
                      "name": "Storm drain head, near Safdarjung's Tomb" } },
    { "type": "Feature", "geometry": { "type": "Point", "coordinates": [77.20878, 28.55953] },
      "properties": { "outfall_id": "O08", "node_id": "", "source_type": "misconnection",
                      "base_rate": 0.0025, "is_synthetic": true,
                      "name": "Sewage misconnection, drain head near Green Park" } },
    { "type": "Feature", "geometry": { "type": "Point", "coordinates": [77.18992, 28.56859] },
      "properties": { "outfall_id": "O09", "node_id": "", "source_type": "misconnection",
                      "base_rate": 0.0025, "is_synthetic": true,
                      "name": "Sewage misconnection, drain head near R K Puram" } },
    { "type": "Feature", "geometry": { "type": "Point", "coordinates": [77.22509, 28.53707] },
      "properties": { "outfall_id": "O10", "node_id": "", "source_type": "cso",
                      "base_rate": 0.0040, "is_synthetic": true,
                      "name": "Sewer overflow at the Kushak Nallah head, near Chirag Delhi" } }
  ]
}
